SENTINEL-6              
1 46984U 20086A   23312.73021462 -.00000026  00000+0  15305-3 0  9998
2 46984  66.0410 311.2381 0007920 268.5359  91.4749 12.80931173138466
